LINGQIAO VIDEO A        
1 40959U 15057B   26168.49702951  .00001055  00000+0  15491-3 0  9998
2 40959  97.6613 163.2836 0015161 269.5059  90.4415 14.77395227575456
LINGQIAO VIDEO B        
1 40960U 15057C   26168.54140459  .00000465  00000+0  71891-4 0  9996
2 40960  97.6579 164.4893 0015301 269.3452  90.6006 14.77499170575502
JILIN-1                 
1 40961U 15057D   26168.48709641  .00000663  00000+0  98055-4 0  9995
2 40961  97.6508 167.8389 0015326 261.8943  98.0530 14.78160833575653
FOX-1A (AO-85)          
1 40967U 15058D   26168.48670985  .00001829  00000+0  17239-3 0  9999
2 40967  64.7761 278.0532 0130490  56.4670 304.8826 14.90970839113614
SINOD-D 1               
1 40968U 15058E   26168.47942456  .00002427  00000+0  20174-3 0  9991
2 40968  64.7753 257.9976 0119049  52.9638 308.2295 14.95907069116707
ELEKTRO-L 2             
1 41105U 15074A   26167.63786162 -.00000124  00000+0  00000+0 0  9995
2 41105   6.6931  70.5258 0000972 242.2635 167.2330  1.00270425 38506
DAMPE                   
1 41173U 15078A   26168.49524847  .00001089  00000+0  39150-4 0  9992
2 41173  97.4548 173.9638 0013808  75.9959 284.2816 15.30786290584599
ORBCOMM FM110           
1 41182U 15081D   26167.96694618  .00000564  00000+0  15550-3 0  9995
2 41182  47.0034   2.4845 0002511  74.4625 285.6538 14.58880402557594
ORBCOMM FM112           
1 41184U 15081F   26168.41667078  .00000460  00000+0  13356-3 0  9995
2 41184  46.9989 269.1620 0003745 218.6294 141.4325 14.58904766558987
ORBCOMM FM113           
1 41185U 15081G   26167.98238227  .00000280  00000+0  95480-4 0  9996
2 41185  47.0010 271.5920 0002254 223.6251 136.4456 14.58858314558906
ORBCOMM FM108           
1 41187U 15081J   26168.15023926  .00000279  00000+0  95355-4 0  9995
2 41187  47.0031 182.3720 0002952 221.4938 138.5724 14.58869994560079
ORBCOMM FM117           
1 41188U 15081K   26167.77331926  .00000187  00000+0  75792-4 0  9996
2 41188  46.9995 182.7879 0003453 223.2090 136.8525 14.58864783560062
ORBCOMM FM116           
1 41189U 15081L   26167.75377462  .00000488  00000+0  13931-3 0  9990
2 41189  47.0020 272.6710 0000582  62.4502 297.6443 14.58882754558877
HORYU-4                 
1 41340U 16012D   26166.43547623  .00392649  54783-4  97992-3 0  9990
2 41340  30.9849  91.8834 0005149 261.3375  98.6703 15.94546005570538
ZIYUAN 3-02 (ZY 3-02)   
1 41556U 16033A   26168.51853111  .00004031  00000+0  18207-3 0  9990
2 41556  97.3835 244.2874 0011163 288.2984  71.7037 15.21484140558038
CARTOSAT-2C             
1 41599U 16040A   26168.52158641  .00004232  00000+0  20412-3 0  9996
2 41599  97.4480 228.4960 0009997 129.2147 230.9977 15.19194510553762
LAPAN-A3                
1 41603U 16040E   26168.51750394  .00002784  00000+0  89264-4 0  9995
2 41603  97.1488 164.6522 0010853  24.8110 335.3652 15.33106312554862
GAOFEN-3                
1 41727U 16049A   26168.50024411  .00000231  00000+0  83384-4 0  9996
2 41727  98.4003 176.2815 0001394  98.7779 261.3569 14.42216413518690
CAS-2T & KS-1Q          
1 41847U 16066G   26168.10210262  .00001464  00000+0  21211-3 0  9994
2 41847  98.3822 243.8394 0342791 129.7362 233.4574 14.44694196504787
YUNHAI-1 01             
1 41857U 16068A   26168.51556472  .00000467  00000+0  18784-3 0  9991
2 41857  98.5822 179.5197 0006166  42.3045 317.8613 14.32706611501878
RESOURCESAT-2A          
1 41877U 16074A   26168.49309068  .00000138  00000+0  82999-4 0  9999
2 41877  98.7530 241.9950 0003370  83.1509 277.0051 14.21616407494348
TANSAT                  
1 41898U 16081A   26168.52263213  .00000549  00000+0  12475-3 0  9992
2 41898  98.5355 168.7902 0019617 311.3661  48.5850 14.59952358504678
JILIN-1 03              
1 41914U 17002B   26168.48022639  .00010129  00000+0  24273-3 0  9999
2 41914  97.1942 175.5605 0006858 153.7028 206.4569 15.41581756521907
CARTOSAT-2D             
1 41948U 17008A   26168.48775256  .00003743  00000+0  18100-3 0  9998
2 41948  97.4109 227.7888 0003835 233.2736 126.8147 15.19210010517625
CARTOSAT-2E             
1 42767U 17036C   26168.50559789  .00005787  00000+0  27769-3 0  9994
2 42767  97.4273 228.3034 0002476 317.8025  42.3019 15.19260526498194
