OBJECT_NAME,OBJECT_ID,EPOCH,MEAN_MOTION,ECCENTRICITY,INCLINATION,RA_OF_ASC_NODE,ARG_OF_PERICENTER,MEAN_ANOMALY,EPHEMERIS_TYPE,CLASSIFICATION_TYPE,NORAD_CAT_ID,ELEMENT_SET_NO,REV_AT_EPOCH,BSTAR,MEAN_MOTION_DOT,MEAN_MOTION_DDOT
LINGQIAO VIDEO A,2015-057B,2026-06-17T11:55:43.349664,14.77395227,.0015161,97.6613,163.2836,269.5059,90.4415,0,U,40959,999,57545,.15491E-3,.1055E-4,0
LINGQIAO VIDEO B,2015-057C,2026-06-17T12:59:37.356576,14.77499170,.0015301,97.6579,164.4893,269.3452,90.6006,0,U,40960,999,57550,.71891E-4,.465E-5,0
JILIN-1,2015-057D,2026-06-17T11:41:25.129824,14.78160833,.0015326,97.6508,167.8389,261.8943,98.0530,0,U,40961,999,57565,.98055E-4,.663E-5,0
FOX-1A (AO-85),2015-058D,2026-06-17T11:40:51.731040,14.90970839,.013049,64.7761,278.0532,56.4670,304.8826,0,U,40967,999,11361,.17239E-3,.1829E-4,0
SINOD-D 1,2015-058E,2026-06-17T11:30:22.281984,14.95907069,.0119049,64.7753,257.9976,52.9638,308.2295,0,U,40968,999,11670,.20174E-3,.2427E-4,0
ELEKTRO-L 2,2015-074A,2026-06-16T15:18:31.243968,1.00270425,.0000972,6.6931,70.5258,242.2635,167.2330,0,U,41105,999,3850,0,-.124E-5,0
DAMPE,2015-078A,2026-06-17T11:53:09.467808,15.30786290,.0013808,97.4548,173.9638,75.9959,284.2816,0,U,41173,999,58459,.3915E-4,.1089E-4,0
ORBCOMM FM110,2015-081D,2026-06-16T23:12:24.149952,14.58880402,.0002511,47.0034,2.4845,74.4625,285.6538,0,U,41182,999,55759,.1555E-3,.564E-5,0
ORBCOMM FM112,2015-081F,2026-06-17T10:00:00.355392,14.58904766,.0003745,46.9989,269.1620,218.6294,141.4325,0,U,41184,999,55898,.13356E-3,.46E-5,0
ORBCOMM FM113,2015-081G,2026-06-16T23:34:37.828128,14.58858314,.0002254,47.0010,271.5920,223.6251,136.4456,0,U,41185,999,55890,.9548E-4,.28E-5,0
ORBCOMM FM108,2015-081J,2026-06-17T03:36:20.672064,14.58869994,.0002952,47.0031,182.3720,221.4938,138.5724,0,U,41187,999,56007,.95355E-4,.279E-5,0
ORBCOMM FM117,2015-081K,2026-06-16T18:33:34.784064,14.58864783,.0003453,46.9995,182.7879,223.2090,136.8525,0,U,41188,999,56006,.75792E-4,.187E-5,0
ORBCOMM FM116,2015-081L,2026-06-16T18:05:26.127168,14.58882754,.0000582,47.0020,272.6710,62.4502,297.6443,0,U,41189,999,55887,.13931E-3,.488E-5,0
HORYU-4,2016-012D,2026-06-15T10:27:05.146272,15.94546005,.00051492,30.9849,91.8834,261.3375,98.6703,0,U,41340,999,57053,.9799184E-3,.392649E-2,.54782598E-4
ZIYUAN 3-02 (ZY 3-02),2016-033A,2026-06-17T12:26:41.087904,15.21484140,.0011163,97.3835,244.2874,288.2984,71.7037,0,U,41556,999,55803,.18207E-3,.4031E-4,0
CARTOSAT-2C,2016-040A,2026-06-17T12:31:05.065824,15.19194510,.0009997,97.4480,228.4960,129.2147,230.9977,0,U,41599,999,55376,.20412E-3,.4232E-4,0
LAPAN-A3,2016-040E,2026-06-17T12:25:12.340416,15.33106312,.0010853,97.1488,164.6522,24.8110,335.3652,0,U,41603,999,55486,.89264E-4,.2784E-4,0
GAOFEN-3,2016-049A,2026-06-17T12:00:21.091104,14.42216413,.0001394,98.4003,176.2815,98.7779,261.3569,0,U,41727,999,51869,.83384E-4,.231E-5,0
CAS-2T & KS-1Q,2016-066G,2026-06-17T02:27:01.666368,14.44694196,.0342791,98.3822,243.8394,129.7362,233.4574,0,U,41847,999,50478,.21211E-3,.1464E-4,0
YUNHAI-1 01,2016-068A,2026-06-17T12:22:24.791808,14.32706611,.0006166,98.5822,179.5197,42.3045,317.8613,0,U,41857,999,50187,.18784E-3,.467E-5,0
RESOURCESAT-2A,2016-074A,2026-06-17T11:50:03.034752,14.21616407,.000337,98.7530,241.9950,83.1509,277.0051,0,U,41877,999,49434,.82999E-4,.138E-5,0
TANSAT,2016-081A,2026-06-17T12:32:35.416032,14.59952358,.0019617,98.5355,168.7902,311.3661,48.5850,0,U,41898,999,50467,.12475E-3,.549E-5,0
JILIN-1 03,2017-002B,2026-06-17T11:31:31.560096,15.41581756,.0006858,97.1942,175.5605,153.7028,206.4569,0,U,41914,999,52190,.24273E-3,.10129E-3,0
CARTOSAT-2D,2017-008A,2026-06-17T11:42:21.821184,15.19210010,.0003835,97.4109,227.7888,233.2736,126.8147,0,U,41948,999,51762,.181E-3,.3743E-4,0
CARTOSAT-2E,2017-036C,2026-06-17T12:08:03.657696,15.19260526,.0002476,97.4273,228.3034,317.8025,42.3019,0,U,42767,999,49819,.27769E-3,.5787E-4,0
